[{"OBJECT_NAME":"STARLINK-5259","OBJECT_ID":"2022-141BE","EPOCH":"2026-03-09T21:28:05.817792","MEAN_MOTION":15.08827948,"ECCENTRICITY":0.0001888,"INCLINATION":53.2209,"RA_OF_ASC_NODE":342.8576,"ARG_OF_PERICENTER":121.5664,"MEAN_ANOMALY":238.5513,"EPHEMERIS_TYPE":0,"CLASSIFICATION_TYPE":"U","NORAD_CAT_ID":54209,"ELEMENT_SET_NO":999,"REV_AT_EPOCH":18617,"BSTAR":-6.0362453e-5,"MEAN_MOTION_DOT":-1.248e-5,"MEAN_MOTION_DDOT":0},{"OBJECT_NAME":"DISKSAT B","OBJECT_ID":"2025-305B","EPOCH":"2026-03-09T19:33:34.074144","MEAN_MOTION":15.07484556,"ECCENTRICITY":0.00037827,"INCLINATION":45.0018,"RA_OF_ASC_NODE":250.2098,"ARG_OF_PERICENTER":311.4052,"MEAN_ANOMALY":48.6498,"EPHEMERIS_TYPE":0,"CLASSIFICATION_TYPE":"U","NORAD_CAT_ID":67220,"ELEMENT_SET_NO":999,"REV_AT_EPOCH":1231,"BSTAR":0.00082400752,"MEAN_MOTION_DOT":0.00012481,"MEAN_MOTION_DDOT":0}]
